{
  "type": "FeatureCollection",
  "features": [
    {
      "type": "Feature",
      "properties": {
        "norad_id": 31492,
        "name": "FENGYUN 1C DEB",
        "group": "fengyun-1c-debris",
        "lat": -6.440590636241206,
        "lon": 144.21561245243868,
        "alt_km": 630.9332537729051,
        "timestamp": "2025-12-03T22:42:32.917086+00:00",
        "meta_object_name": "FENGYUN 1C DEB",
        "meta_object_id": "1999-025BWF",
        "meta_epoch": "2025-11-30T16:19:50.588832",
        "meta_mean_motion": 14.70037284,
        "meta_eccentricity": 0.00642617,
        "meta_inclination": 98.8558,
        "meta_ra_of_asc_node": 139.6647,
        "meta_arg_of_pericenter": 46.3479,
        "meta_mean_anomaly": 314.3027,
        "meta_ephemeris_type": 0,
        "meta_classification_type": "U",
        "meta_norad_cat_id": 31492,
        "meta_element_set_no": 999,
        "meta_rev_at_epoch": 96329,
        "meta_bstar": 0.0030343762,
        "meta_mean_motion_dot": 0.00018787,
        "meta_mean_motion_ddot": 0,
        "tle_line1": "1 31492U 99025BWF 25334.68044663  .00018787  00000+0  30344-2 0  9994",
        "tle_line2": "2 31492  98.8558 139.6647 0064261  46.3479 314.3027 14.70037284963297"
      },
      "geometry": {
        "type": "Point",
        "coordinates": [
          144.21561245243868,
          -6.440590636241206
        ]
      }
    },
    {
      "type": "Feature",
      "properties": {
        "norad_id": 31493,
        "name": "FENGYUN 1C DEB",
        "group": "fengyun-1c-debris",
        "lat": -58.07627595740431,
        "lon": 86.32866962613856,
        "alt_km": 859.9511549812132,
        "timestamp": "2025-12-03T22:42:32.917096+00:00",
        "meta_object_name": "FENGYUN 1C DEB",
        "meta_object_id": "1999-025BWG",
        "meta_epoch": "2025-12-02T16:15:30.729600",
        "meta_mean_motion": 13.92937252,
        "meta_eccentricity": 0.01169898,
        "meta_inclination": 100.135,
        "meta_ra_of_asc_node": 281.6254,
        "meta_arg_of_pericenter": 202.4097,
        "meta_mean_anomaly": 157.1925,
        "meta_ephemeris_type": 0,
        "meta_classification_type": "U",
        "meta_norad_cat_id": 31493,
        "meta_element_set_no": 999,
        "meta_rev_at_epoch": 59726,
        "meta_bstar": 0.00081568072,
        "meta_mean_motion_dot": 1.068e-05,
        "meta_mean_motion_ddot": 0,
        "tle_line1": "1 31493U 99025BWG 25336.67743900  .00001068  00000+0  81568-3 0  9995",
        "tle_line2": "2 31493 100.1350 281.6254 0116989 202.4097 157.1925 13.92937252597260"
      },
      "geometry": {
        "type": "Point",
        "coordinates": [
          86.32866962613856,
          -58.07627595740431
        ]
      }
    },
    {
      "type": "Feature",
      "properties": {
        "norad_id": 31495,
        "name": "FENGYUN 1C DEB",
        "group": "fengyun-1c-debris",
        "lat": 2.5621504632259433,
        "lon": -149.6964384473047,
        "alt_km": 814.0670337681768,
        "timestamp": "2025-12-03T22:42:32.917105+00:00",
        "meta_object_name": "FENGYUN 1C DEB",
        "meta_object_id": "1999-025BWJ",
        "meta_epoch": "2025-11-29T09:28:29.855136",
        "meta_mean_motion": 14.2907414,
        "meta_eccentricity": 0.00253264,
        "meta_inclination": 99.1199,
        "meta_ra_of_asc_node": 205.9571,
        "meta_arg_of_pericenter": 218.4335,
        "meta_mean_anomaly": 141.5042,
        "meta_ephemeris_type": 0,
        "meta_classification_type": "U",
        "meta_norad_cat_id": 31495,
        "meta_element_set_no": 999,
        "meta_rev_at_epoch": 63200,
        "meta_bstar": 0.0012827316,
        "meta_mean_motion_dot": 3.214e-05,
        "meta_mean_motion_ddot": 0,
        "tle_line1": "1 31495U 99025BWJ 25333.39478999  .00003214  00000+0  12827-2 0  9992",
        "tle_line2": "2 31495  99.1199 205.9571 0025326 218.4335 141.5042 14.29074140632005"
      },
      "geometry": {
        "type": "Point",
        "coordinates": [
          -149.6964384473047,
          2.5621504632259433
        ]
      }
    },
    {
      "type": "Feature",
      "properties": {
        "norad_id": 31497,
        "name": "FENGYUN 1C DEB",
        "group": "fengyun-1c-debris",
        "lat": -19.875541309138615,
        "lon": 138.66173875671865,
        "alt_km": 884.5456798809564,
        "timestamp": "2025-12-03T22:42:32.917114+00:00",
        "meta_object_name": "FENGYUN 1C DEB",
        "meta_object_id": "1999-025BWL",
        "meta_epoch": "2025-12-03T05:08:39.245568",
        "meta_mean_motion": 14.39191841,
        "meta_eccentricity": 0.0168475,
        "meta_inclination": 98.3696,
        "meta_ra_of_asc_node": 320.9979,
        "meta_arg_of_pericenter": 11.741,
        "meta_mean_anomaly": 358.9016,
        "meta_ephemeris_type": 0,
        "meta_classification_type": "U",
        "meta_norad_cat_id": 31497,
        "meta_element_set_no": 999,
        "meta_rev_at_epoch": 97418,
        "meta_bstar": 0.00041155,
        "meta_mean_motion_dot": 1.457e-05,
        "meta_mean_motion_ddot": 0,
        "tle_line1": "1 31497U 99025BWL 25337.21434312  .00001457  00000+0  41155-3 0  9994",
        "tle_line2": "2 31497  98.3696 320.9979 0168475  11.7410 358.9016 14.39191841974183"
      },
      "geometry": {
        "type": "Point",
        "coordinates": [
          138.66173875671865,
          -19.875541309138615
        ]
      }
    },
    {
      "type": "Feature",
      "properties": {
        "norad_id": 31498,
        "name": "FENGYUN 1C DEB",
        "group": "fengyun-1c-debris",
        "lat": -68.17273750680731,
        "lon": -27.867611991850925,
        "alt_km": 1063.0802564918085,
        "timestamp": "2025-12-03T22:42:32.917123+00:00",
        "meta_object_name": "FENGYUN 1C DEB",
        "meta_object_id": "1999-025BWM",
        "meta_epoch": "2025-11-30T09:36:20.130336",
        "meta_mean_motion": 13.76941251,
        "meta_eccentricity": 0.02170133,
        "meta_inclination": 98.4854,
        "meta_ra_of_asc_node": 307.0815,
        "meta_arg_of_pericenter": 178.1743,
        "meta_mean_anomaly": 182.0252,
        "meta_ephemeris_type": 0,
        "meta_classification_type": "U",
        "meta_norad_cat_id": 31498,
        "meta_element_set_no": 999,
        "meta_rev_at_epoch": 92564,
        "meta_bstar": 0.0014956317,
        "meta_mean_motion_dot": 1.718e-05,
        "meta_mean_motion_ddot": 0,
        "tle_line1": "1 31498U 99025BWM 25334.40023299  .00001718  00000+0  14956-2 0  9999",
        "tle_line2": "2 31498  98.4854 307.0815 0217013 178.1743 182.0252 13.76941251925649"
      },
      "geometry": {
        "type": "Point",
        "coordinates": [
          -27.867611991850925,
          -68.17273750680731
        ]
      }
    },
    {
      "type": "Feature",
      "properties": {
        "norad_id": 31503,
        "name": "FENGYUN 1C DEB",
        "group": "fengyun-1c-debris",
        "lat": -20.023227515022874,
        "lon": 19.05340770104074,
        "alt_km": 787.1747855210842,
        "timestamp": "2025-12-03T22:42:32.917132+00:00",
        "meta_object_name": "FENGYUN 1C DEB",
        "meta_object_id": "1999-025BWS",
        "meta_epoch": "2025-12-02T20:26:52.467360",
        "meta_mean_motion": 14.22519865,
        "meta_eccentricity": 0.00492451,
        "meta_inclination": 100.0996,
        "meta_ra_of_asc_node": 201.5254,
        "meta_arg_of_pericenter": 214.863,
        "meta_mean_anomaly": 144.9315,
        "meta_ephemeris_type": 0,
        "meta_classification_type": "U",
        "meta_norad_cat_id": 31503,
        "meta_element_set_no": 999,
        "meta_rev_at_epoch": 64106,
        "meta_bstar": 0.001356703,
        "meta_mean_motion_dot": 3.011e-05,
        "meta_mean_motion_ddot": 0,
        "tle_line1": "1 31503U 99025BWS 25336.85199615  .00003011  00000+0  13567-2 0  9998",
        "tle_line2": "2 31503 100.0996 201.5254 0049245 214.8630 144.9315 14.22519865641063"
      },
      "geometry": {
        "type": "Point",
        "coordinates": [
          19.05340770104074,
          -20.023227515022874
        ]
      }
    },
    {
      "type": "Feature",
      "properties": {
        "norad_id": 31507,
        "name": "FENGYUN 1C DEB",
        "group": "fengyun-1c-debris",
        "lat": 59.9982021870774,
        "lon": -4.044904570563497,
        "alt_km": 652.0861708382472,
        "timestamp": "2025-12-03T22:42:32.917141+00:00",
        "meta_object_name": "FENGYUN 1C DEB",
        "meta_object_id": "1999-025BWW",
        "meta_epoch": "2025-12-03T07:49:18.153120",
        "meta_mean_motion": 14.52112244,
        "meta_eccentricity": 0.0118061,
        "meta_inclination": 98.1945,
        "meta_ra_of_asc_node": 9.8016,
        "meta_arg_of_pericenter": 106.9243,
        "meta_mean_anomaly": 314.2736,
        "meta_ephemeris_type": 0,
        "meta_classification_type": "U",
        "meta_norad_cat_id": 31507,
        "meta_element_set_no": 999,
        "meta_rev_at_epoch": 97884,
        "meta_bstar": 0.00063562,
        "meta_mean_motion_dot": 2.772e-05,
        "meta_mean_motion_ddot": 0,
        "tle_line1": "1 31507U 99025BWW 25337.32590455  .00002772  00000+0  63562-3 0  9996",
        "tle_line2": "2 31507  98.1945   9.8016 0118061 106.9243 314.2736 14.52112244978848"
      },
      "geometry": {
        "type": "Point",
        "coordinates": [
          -4.044904570563497,
          59.9982021870774
        ]
      }
    }
  ]
}